GSAT0101 (PRN E11)      
1 37846U 11060A   22088.47570053 -.00000103  00000+0  00000+0 0  9990
2 37846  56.9684  23.5103 0004181 359.8699   0.1096  1.70474978 64985
GSAT0102 (PRN E12)      
1 37847U 11060B   22088.07522139 -.00000102  00000+0  00000+0 0  9998
2 37847  56.9691  23.5208 0005155 336.0454 184.7142  1.70475275 64856
GSAT0103 (PRN E19)      
1 38857U 12055A   22088.51592501  .00000023  00000+0  00000+0 0  9995
2 38857  55.1124 143.8958 0004876 261.7163  98.3103  1.70473618 58880
GSAT0104 (PRN E20)      
1 38858U 12055B   22089.07276516  .00000025  00000+0  00000+0 0  9995
2 38858  55.1127 143.8818 0002471 255.9883 104.0690  1.70473897 58865
GSAT0201 (PRN E18)      
1 40128U 14050A   22088.43736413 -.00000088  00000+0  00000+0 0  9991
2 40128  50.3314 335.4706 1630180 121.1448 255.8556  1.85519036 49738
GSAT0202 (PRN E14)      
1 40129U 14050B   22088.69865344 -.00000087  00000+0  00000+0 0  9995
2 40129  50.3574 334.5183 1627221 121.9618 254.8861  1.85519622 51906
GSAT0203 (PRN E26)      
1 40544U 15017A   22088.84328419 -.00000104  00000+0  00000+0 0  9994
2 40544  56.7636  23.5444 0003577 288.1971  71.7438  1.70475572 42949
GSAT0204 (PRN E22)      
1 40545U 15017B   22087.92276571 -.00000102  00000+0  00000+0 0  9992
2 40545  56.7691  23.5818 0002767 276.9719  82.9769  1.70475382  5973
GSAT0205 (PRN E24)      
1 40889U 15045A   22088.27647547  .00000001  00000+0  00000+0 0  9995
2 40889  55.6783 264.1745 0005788  29.9541 330.0493  1.70473475 40747
GSAT0206 (PRN E30)      
1 40890U 15045B   22088.49725165 -.00000001  00000+0  00000+0 0  9995
2 40890  55.6771 264.1642 0003892  27.8401 332.1495  1.70473521 40778
GSAT0209 (PRN E09)      
1 41174U 15079A   22088.08580106  .00000021  00000+0  00000+0 0  9998
2 41174  55.1284 143.6106 0004711 300.4812  59.5522  1.70474857 38503
GSAT0208 (PRN E08)      
1 41175U 15079B   22088.30524093  .00000022  00000+0  00000+0 0  9998
2 41175  55.1270 143.6031 0004017 298.7508  61.2900  1.70474886 38924
GSAT0211 (PRN E02)      
1 41549U 16030A   22088.42468027  .00000000  00000+0  00000+0 0  9994
2 41549  55.8220 264.0909 0003769 358.3107   1.6573  1.70475022 36402
GSAT0210 (PRN E01)      
1 41550U 16030B   22088.71735248 -.00000003  00000+0  00000+0 0  9994
2 41550  55.8218 264.0842 0002000 334.9552  25.0024  1.70475160 36402
GSAT0207 (PRN E07)      
1 41859U 16069A   22087.20514148  .00000015  00000+0  00000+0 0  9997
2 41859  54.7883 143.8361 0004926 287.9097  72.1115  1.70473473 33114
GSAT0212 (PRN E03)      
1 41860U 16069B   22088.23172930  .00000020  00000+0  00000+0 0  9998
2 41860  54.7862 143.8053 0003438 306.2484  53.8002  1.70473481 33382
GSAT0213 (PRN E04)      
1 41861U 16069C   22088.01060736  .00000019  00000+0  00000+0 0  9993
2 41861  54.7883 143.8166 0004831 268.6398  91.3840  1.70473606 33245
GSAT0214 (PRN E05)      
1 41862U 16069D   22088.15768542  .00000020  00000+0  00000+0 0  9991
2 41862  54.7882 143.8071 0003891 270.9838  89.0516  1.70473627 33371
GSAT0215 (PRN E21)      
1 43055U 17079A   22088.64836631 -.00000002  00000+0  00000+0 0  9999
2 43055  55.7977 263.9183 0001420 344.3937  15.5693  1.70474247 26723
GSAT0216 (PRN E25)      
1 43056U 17079B   22089.52722180 -.00000008  00000+0  00000+0 0  9997
2 43056  55.7975 263.8939 0002700 309.2084  50.7289  1.70474398 26724
GSAT0217 (PRN E27)      
1 43057U 17079C   22088.57428485 -.00000002  00000+0  00000+0 0  9997
2 43057  55.7961 263.9199 0002903 331.3607  28.5912  1.70474285 26722
GSAT0218 (PRN E31)      
1 43058U 17079D   22088.20771299  .00000002  00000+0  00000+0 0  9991
2 43058  55.7963 263.9274 0002944 299.6801  60.2610  1.70474270 26740
GSAT0221 (PRN E15)      
1 43564U 18060A   22088.69246349 -.00000104  00000+0  00000+0 0  9994
2 43564  57.1463  23.3438 0004621 300.3248  59.6094  1.70475427 22909
GSAT0222 (PRN E33)      
1 43565U 18060B   22087.15255786 -.00000098  00000+0  00000+0 0  9992
2 43565  57.1480  23.3858 0004567 308.7617  51.1789  1.70475346 22926
GSAT0219 (PRN E36)      
1 43566U 18060C   22088.54629565 -.00000103  00000+0  00000+0 0  9994
2 43566  57.1490  23.3500 0004248 311.7472  48.1964  1.70475442 22929
GSAT0220 (PRN E13)      
1 43567U 18060D   22088.76636272 -.00000104  00000+0  00000+0 0  9993
2 43567  57.1486  23.3438 0004177 306.7947  53.1469  1.70475295 22918
GSAT0223                
1 49809U 21116A   22088.33260435 -.00000103  00000+0  00000+0 0  9990
2 49809  57.1412  23.2545 0000792 281.6647 262.0239  1.70475425  1904
GSAT0224                
1 49810U 21116B   22088.76808093 -.00000104  00000+0  00000+0 0  9998
2 49810  57.1421  23.2406 0000866 331.9184 231.5197  1.70475409  1949
